{
"type": "FeatureCollection",
"name": "INMET_MS_1400_UTC",
"crs": { "type": "name", "properties": { "name": "urn:ogc:def:crs:OGC:1.3:CRS84" } },
"features": [
{ "type": "Feature", "properties": { "data": "11/02/2026", "hora_utc": 1800, "temp_c": "34,3", "temp_max_c": "34,7", "temp_min_c": "32,9", "umid_pct": "38,0", "umid_max_pct": "43,0", "umid_min_pct": "37,0", "pto_orvalho_c": "18,1", "pto_orvalho_max_c": "19,7", "pto_orvalho_min_c": "17,3", "press_hpa": "971,5", "press_max_hpa": "972,3", "press_min_hpa": "971,5", "vento_ms": "2,0", "dir_vento_ms": "179,0", "raj_vento_ms": "4,2", "radiacao_kj_m2": "2931,70", "chuva_mm": "0,0", "cod_estacao": "A756", "VL_LATITUDE": -20.44444444, "VL_LONGITUDE": -52.87583332 }, "geometry": { "type": "Point", "coordinates": [ -52.87583332, -20.44444444 ] } },
{ "type": "Feature", "properties": { "data": "11/02/2026", "hora_utc": 1800, "temp_c": "30,5", "temp_max_c": "31,8", "temp_min_c": "29,9", "umid_pct": "55,0", "umid_max_pct": "59,0", "umid_min_pct": "46,0", "pto_orvalho_c": "20,5", "pto_orvalho_max_c": "21,8", "pto_orvalho_min_c": "18,2", "press_hpa": "948,8", "press_max_hpa": "949,5", "press_min_hpa": "948,8", "vento_ms": "0,9", "dir_vento_ms": "192,0", "raj_vento_ms": "5,9", "radiacao_kj_m2": "2400,70", "chuva_mm": "0,0", "cod_estacao": "S733", "VL_LATITUDE": -19.774306, "VL_LONGITUDE": -53.273982 }, "geometry": { "type": "Point", "coordinates": [ -53.273982, -19.774306 ] } },
{ "type": "Feature", "properties": { "data": "11/02/2026", "hora_utc": 1800, "temp_c": "30,2", "temp_max_c": "30,4", "temp_min_c": "29,1", "umid_pct": "60,0", "umid_max_pct": "68,0", "umid_min_pct": "59,0", "pto_orvalho_c": "21,7", "pto_orvalho_max_c": "23,6", "pto_orvalho_min_c": "20,8", "press_hpa": "965,3", "press_max_hpa": "965,9", "press_min_hpa": "965,2", "vento_ms": "2,7", "dir_vento_ms": "331,0", "raj_vento_ms": "6,1", "radiacao_kj_m2": "2814,20", "chuva_mm": "0,0", "cod_estacao": "S731", "VL_LATITUDE": -18.052175, "VL_LONGITUDE": -53.845593 }, "geometry": { "type": "Point", "coordinates": [ -53.845593, -18.052175 ] } },
{ "type": "Feature", "properties": { "data": "11/02/2026", "hora_utc": 1800, "temp_c": "36,0", "temp_max_c": "36,2", "temp_min_c": "33,3", "umid_pct": "23,0", "umid_max_pct": "31,0", "umid_min_pct": "17,0", "pto_orvalho_c": "11,9", "pto_orvalho_max_c": "14,6", "pto_orvalho_min_c": "7,8", "press_hpa": "959,9", "press_max_hpa": "960,7", "press_min_hpa": "959,9", "vento_ms": "0,9", "dir_vento_ms": "52,0", "raj_vento_ms": "6,7", "radiacao_kj_m2": "3205,60", "chuva_mm": "0,0", "cod_estacao": "A750", "VL_LATITUDE": -23.0025, "VL_LONGITUDE": -55.32944443 }, "geometry": { "type": "Point", "coordinates": [ -55.32944443, -23.0025 ] } },
{ "type": "Feature", "properties": { "data": "11/02/2026", "hora_utc": 1800, "temp_c": "31,3", "temp_max_c": "31,8", "temp_min_c": "29,5", "umid_pct": "60,0", "umid_max_pct": "66,0", "umid_min_pct": "56,0", "pto_orvalho_c": "22,6", "pto_orvalho_max_c": "23,7", "pto_orvalho_min_c": "21,2", "press_hpa": "959,7", "press_max_hpa": "960,4", "press_min_hpa": "959,7", "vento_ms": "1,9", "dir_vento_ms": "171,0", "raj_vento_ms": "5,0", "radiacao_kj_m2": "1791,00", "chuva_mm": "0,0", "cod_estacao": "S736", "VL_LATITUDE": -22.046806, "VL_LONGITUDE": -52.897545 }, "geometry": { "type": "Point", "coordinates": [ -52.897545, -22.046806 ] } },
{ "type": "Feature", "properties": { "data": "11/02/2026", "hora_utc": 1800, "temp_c": "33,8", "temp_max_c": "34,9", "temp_min_c": "31,7", "umid_pct": "43,0", "umid_max_pct": "50,0", "umid_min_pct": "42,0", "pto_orvalho_c": "19,6", "pto_orvalho_max_c": "21,2", "pto_orvalho_min_c": "19,1", "press_hpa": "969,6", "press_max_hpa": "970,5", "press_min_hpa": "969,6", "vento_ms": "1,4", "dir_vento_ms": "73,0", "raj_vento_ms": "4,0", "radiacao_kj_m2": "3058,30", "chuva_mm": "0,0", "cod_estacao": "S701", "VL_LATITUDE": -22.14805555, "VL_LONGITUDE": -53.76361111 }, "geometry": { "type": "Point", "coordinates": [ -53.76361111, -22.14805555 ] } },
{ "type": "Feature", "properties": { "data": "11/02/2026", "hora_utc": 1800, "temp_c": "34,2", "temp_max_c": "34,4", "temp_min_c": "32,1", "umid_pct": "59,0", "umid_max_pct": "63,0", "umid_min_pct": "57,0", "pto_orvalho_c": "25,1", "pto_orvalho_max_c": "25,7", "pto_orvalho_min_c": "23,3", "press_hpa": "991,4", "press_max_hpa": "992,5", "press_min_hpa": "991,4", "vento_ms": "0,4", "dir_vento_ms": "303,0", "raj_vento_ms": "4,9", "radiacao_kj_m2": "461,90", "chuva_mm": "0,0", "cod_estacao": "A719", "VL_LATITUDE": -20.47555554, "VL_LONGITUDE": -55.78388888 }, "geometry": { "type": "Point", "coordinates": [ -55.78388888, -20.47555554 ] } },
{ "type": "Feature", "properties": { "data": "11/02/2026", "hora_utc": 1800, "temp_c": "32,4", "temp_max_c": "33,9", "temp_min_c": "32,4", "umid_pct": "58,0", "umid_max_pct": "63,0", "umid_min_pct": "51,0", "pto_orvalho_c": "23,0", "pto_orvalho_max_c": "24,7", "pto_orvalho_min_c": "22,0", "press_hpa": "995,7", "press_max_hpa": "996,7", "press_min_hpa": "995,7", "vento_ms": "1,6", "dir_vento_ms": "108,0", "raj_vento_ms": "3,1", "radiacao_kj_m2": "1811,80", "chuva_mm": "0,0", "cod_estacao": "S729", "VL_LATITUDE": -19.573766, "VL_LONGITUDE": -56.155409 }, "geometry": { "type": "Point", "coordinates": [ -56.155409, -19.573766 ] } },
{ "type": "Feature", "properties": { "data": "11/02/2026", "hora_utc": 1800, "temp_c": "33,1", "temp_max_c": "33,6", "temp_min_c": "31,7", "umid_pct": "41,0", "umid_max_pct": "46,0", "umid_min_pct": "37,0", "pto_orvalho_c": "18,0", "pto_orvalho_max_c": "19,5", "pto_orvalho_min_c": "16,5", "press_hpa": "941,5", "press_max_hpa": "942,2", "press_min_hpa": "941,5", "vento_ms": "2,0", "dir_vento_ms": "280,0", "raj_vento_ms": "6,5", "radiacao_kj_m2": "2092,20", "chuva_mm": "0,0", "cod_estacao": "S702", "VL_LATITUDE": -22.955, "VL_LONGITUDE": -55.6261111 }, "geometry": { "type": "Point", "coordinates": [ -55.6261111, -22.955 ] } },
{ "type": "Feature", "properties": { "data": "11/02/2026", "hora_utc": 1800, "temp_c": "31,4", "temp_max_c": "31,8", "temp_min_c": "29,5", "umid_pct": "50,0", "umid_max_pct": "62,0", "umid_min_pct": "48,0", "pto_orvalho_c": "19,8", "pto_orvalho_max_c": "22,4", "pto_orvalho_min_c": "19,1", "press_hpa": "940,0", "press_max_hpa": "940,6", "press_min_hpa": "940,0", "vento_ms": "2,6", "dir_vento_ms": "257,0", "raj_vento_ms": "6,3", "radiacao_kj_m2": "3364,80", "chuva_mm": "0,0", "cod_estacao": "S703", "VL_LATITUDE": -19.94555555, "VL_LONGITUDE": -54.3686111 }, "geometry": { "type": "Point", "coordinates": [ -54.3686111, -19.94555555 ] } },
{ "type": "Feature", "properties": { "data": "11/02/2026", "hora_utc": 1800, "temp_c": "31,0", "temp_max_c": "32,6", "temp_min_c": "30,8", "umid_pct": "55,0", "umid_max_pct": "58,0", "umid_min_pct": "51,0", "pto_orvalho_c": "20,9", "pto_orvalho_max_c": "22,4", "pto_orvalho_min_c": "20,3", "press_hpa": "964,8", "press_max_hpa": "965,5", "press_min_hpa": "964,8", "vento_ms": "2,7", "dir_vento_ms": "110,0", "raj_vento_ms": "5,6", "radiacao_kj_m2": "3437,20", "chuva_mm": "0,0", "cod_estacao": "A759", "VL_LATITUDE": -21.75, "VL_LONGITUDE": -52.47138888 }, "geometry": { "type": "Point", "coordinates": [ -52.47138888, -21.75 ] } },
{ "type": "Feature", "properties": { "data": "11/02/2026", "hora_utc": 1800, "temp_c": "33,7", "temp_max_c": "35,2", "temp_min_c": "33,5", "umid_pct": "48,0", "umid_max_pct": "51,0", "umid_min_pct": "43,0", "pto_orvalho_c": "21,1", "pto_orvalho_max_c": "22,2", "pto_orvalho_min_c": "19,3", "press_hpa": "971,6", "press_max_hpa": "972,3", "press_min_hpa": "971,6", "vento_ms": "2,7", "dir_vento_ms": "39,0", "raj_vento_ms": "6,7", "radiacao_kj_m2": "3493,90", "chuva_mm": "0,0", "cod_estacao": "S704", "VL_LATITUDE": -21.24666666, "VL_LONGITUDE": -56.45055555 }, "geometry": { "type": "Point", "coordinates": [ -56.45055555, -21.24666666 ] } },
{ "type": "Feature", "properties": { "data": "11/02/2026", "hora_utc": 1800, "temp_c": "35,3", "temp_max_c": "35,9", "temp_min_c": "34,4", "umid_pct": "37,0", "umid_max_pct": "41,0", "umid_min_pct": "35,0", "pto_orvalho_c": "18,6", "pto_orvalho_max_c": "19,5", "pto_orvalho_min_c": "17,1", "press_hpa": "958,2", "press_max_hpa": "959,0", "press_min_hpa": "958,2", "vento_ms": "2,6", "dir_vento_ms": "13,0", "raj_vento_ms": "5,8", "radiacao_kj_m2": "3219,20", "chuva_mm": "0,0", "cod_estacao": "S706", "VL_LATITUDE": -22.65694444, "VL_LONGITUDE": -54.81944443 }, "geometry": { "type": "Point", "coordinates": [ -54.81944443, -22.65694444 ] } },
{ "type": "Feature", "properties": { "data": "11/02/2026", "hora_utc": 1800, "temp_c": "23,6", "temp_max_c": "31,1", "temp_min_c": "21,4", "umid_pct": "87,0", "umid_max_pct": "92,0", "umid_min_pct": "55,0", "pto_orvalho_c": "21,4", "pto_orvalho_max_c": "21,6", "pto_orvalho_min_c": "18,9", "press_hpa": "949,8", "press_max_hpa": "950,0", "press_min_hpa": "949,6", "vento_ms": "4,4", "dir_vento_ms": "237,0", "raj_vento_ms": "11,7", "radiacao_kj_m2": "841,20", "chuva_mm": "8,8", "cod_estacao": "S707", "VL_LATITUDE": -19.58749999, "VL_LONGITUDE": -54.02999999 }, "geometry": { "type": "Point", "coordinates": [ -54.02999999, -19.58749999 ] } },
{ "type": "Feature", "properties": { "data": "11/02/2026", "hora_utc": 1800, "temp_c": "31,3", "temp_max_c": "31,3", "temp_min_c": "29,1", "umid_pct": "44,0", "umid_max_pct": "59,0", "umid_min_pct": "44,0", "pto_orvalho_c": "17,7", "pto_orvalho_max_c": "20,5", "pto_orvalho_min_c": "17,7", "press_hpa": "950,0", "press_max_hpa": "951,0", "press_min_hpa": "950,0", "vento_ms": "2,6", "dir_vento_ms": "228,0", "raj_vento_ms": "5,9", "radiacao_kj_m2": "3198,50", "chuva_mm": "0,0", "cod_estacao": "A702", "VL_LATITUDE": -20.44722221, "VL_LONGITUDE": -54.72249999 }, "geometry": { "type": "Point", "coordinates": [ -54.72249999, -20.44722221 ] } },
{ "type": "Feature", "properties": { "data": "11/02/2026", "hora_utc": 1800, "temp_c": "33,2", "temp_max_c": "35,0", "temp_min_c": "32,8", "umid_pct": "47,0", "umid_max_pct": "47,0", "umid_min_pct": "40,0", "pto_orvalho_c": "20,2", "pto_orvalho_max_c": "20,9", "pto_orvalho_min_c": "18,3", "press_hpa": "965,4", "press_max_hpa": "966,1", "press_min_hpa": "965,4", "vento_ms": "2,5", "dir_vento_ms": "5,0", "raj_vento_ms": "7,7", "radiacao_kj_m2": "2866,00", "chuva_mm": "0,0", "cod_estacao": "S730", "VL_LATITUDE": -21.854199, "VL_LONGITUDE": -56.868788 }, "geometry": { "type": "Point", "coordinates": [ -56.868788, -21.854199 ] } },
{ "type": "Feature", "properties": { "data": "11/02/2026", "hora_utc": 1800, "temp_c": "23,2", "temp_max_c": "24,0", "temp_min_c": "23,2", "umid_pct": "100,0", "umid_max_pct": "100,0", "umid_min_pct": "94,0", "pto_orvalho_c": "23,2", "pto_orvalho_max_c": "23,9", "pto_orvalho_min_c": "22,7", "press_hpa": "956,0", "press_max_hpa": "956,1", "press_min_hpa": "955,8", "vento_ms": "2,4", "dir_vento_ms": null, "raj_vento_ms": "4,7", "radiacao_kj_m2": "677,80", "chuva_mm": "0,2", "cod_estacao": "A742", "VL_LATITUDE": -19.12249999, "VL_LONGITUDE": -51.72083332 }, "geometry": { "type": "Point", "coordinates": [ -51.72083332, -19.12249999 ] } },
{ "type": "Feature", "properties": { "data": "11/02/2026", "hora_utc": 1800, "temp_c": "25,1", "temp_max_c": "25,7", "temp_min_c": "24,1", "umid_pct": "77,0", "umid_max_pct": "84,0", "umid_min_pct": "71,0", "pto_orvalho_c": "20,9", "pto_orvalho_max_c": "21,3", "pto_orvalho_min_c": "19,7", "press_hpa": "919,9", "press_max_hpa": "920,2", "press_min_hpa": "919,8", "vento_ms": "2,6", "dir_vento_ms": "254,0", "raj_vento_ms": "5,1", "radiacao_kj_m2": "1391,80", "chuva_mm": "0,2", "cod_estacao": "A730", "VL_LATITUDE": -18.80222222, "VL_LONGITUDE": -52.6025 }, "geometry": { "type": "Point", "coordinates": [ -52.6025, -18.80222222 ] } },
{ "type": "Feature", "properties": { "data": "11/02/2026", "hora_utc": 1800, "temp_c": "29,6", "temp_max_c": "29,9", "temp_min_c": "28,4", "umid_pct": "63,0", "umid_max_pct": "74,0", "umid_min_pct": "63,0", "pto_orvalho_c": "21,9", "pto_orvalho_max_c": "24,2", "pto_orvalho_min_c": "21,9", "press_hpa": "948,2", "press_max_hpa": "949,0", "press_min_hpa": "948,1", "vento_ms": "4,1", "dir_vento_ms": "319,0", "raj_vento_ms": "7,3", "radiacao_kj_m2": "3149,10", "chuva_mm": "0,0", "cod_estacao": "S722", "VL_LATITUDE": -19.76111111, "VL_LONGITUDE": -55.32972221 }, "geometry": { "type": "Point", "coordinates": [ -55.32972221, -19.76111111 ] } },
{ "type": "Feature", "properties": { "data": "11/02/2026", "hora_utc": 1800, "temp_c": "35,6", "temp_max_c": "37,0", "temp_min_c": "35,3", "umid_pct": "38,0", "umid_max_pct": "43,0", "umid_min_pct": "38,0", "pto_orvalho_c": "19,1", "pto_orvalho_max_c": "22,4", "pto_orvalho_min_c": "18,8", "press_hpa": "994,2", "press_max_hpa": "995,4", "press_min_hpa": "994,2", "vento_ms": null, "dir_vento_ms": "43,0", "raj_vento_ms": null, "radiacao_kj_m2": "3469,10", "chuva_mm": "0,0", "cod_estacao": "A724", "VL_LATITUDE": -18.99666666, "VL_LONGITUDE": -57.63749999 }, "geometry": { "type": "Point", "coordinates": [ -57.63749999, -18.99666666 ] } },
{ "type": "Feature", "properties": { "data": "11/02/2026", "hora_utc": 1800, "temp_c": "32,4", "temp_max_c": "32,5", "temp_min_c": "31,5", "umid_pct": "64,0", "umid_max_pct": "70,0", "umid_min_pct": "62,0", "pto_orvalho_c": "24,8", "pto_orvalho_max_c": "25,8", "pto_orvalho_min_c": "24,1", "press_hpa": "997,2", "press_max_hpa": "998,2", "press_min_hpa": "997,2", "vento_ms": "2,6", "dir_vento_ms": "34,0", "raj_vento_ms": "8,2", "radiacao_kj_m2": "1464,00", "chuva_mm": "0,0", "cod_estacao": "S726", "VL_LATITUDE": -18.040824, "VL_LONGITUDE": -57.489877 }, "geometry": { "type": "Point", "coordinates": [ -57.489877, -18.040824 ] } },
{ "type": "Feature", "properties": { "data": "11/02/2026", "hora_utc": 1800, "temp_c": "33,7", "temp_max_c": "34,4", "temp_min_c": "32,3", "umid_pct": "49,0", "umid_max_pct": "54,0", "umid_min_pct": "46,0", "pto_orvalho_c": "21,5", "pto_orvalho_max_c": "22,8", "pto_orvalho_min_c": "20,8", "press_hpa": "991,6", "press_max_hpa": "992,7", "press_min_hpa": "991,6", "vento_ms": "2,5", "dir_vento_ms": "233,0", "raj_vento_ms": "5,8", "radiacao_kj_m2": "3414,90", "chuva_mm": "0,0", "cod_estacao": "S718", "VL_LATITUDE": -18.6236111, "VL_LONGITUDE": -55.68666666 }, "geometry": { "type": "Point", "coordinates": [ -55.68666666, -18.6236111 ] } },
{ "type": "Feature", "properties": { "data": "11/02/2026", "hora_utc": 1800, "temp_c": "33,5", "temp_max_c": "34,6", "temp_min_c": "31,8", "umid_pct": "58,0", "umid_max_pct": "61,0", "umid_min_pct": "51,0", "pto_orvalho_c": "24,1", "pto_orvalho_max_c": "25,2", "pto_orvalho_min_c": "22,3", "press_hpa": "995,5", "press_max_hpa": "996,5", "press_min_hpa": "995,5", "vento_ms": null, "dir_vento_ms": null, "raj_vento_ms": null, "radiacao_kj_m2": "3273,90", "chuva_mm": "0,0", "cod_estacao": "S727", "VL_LATITUDE": -17.908087, "VL_LONGITUDE": -56.5671 }, "geometry": { "type": "Point", "coordinates": [ -56.5671, -17.908087 ] } },
{ "type": "Feature", "properties": { "data": "11/02/2026", "hora_utc": 1800, "temp_c": "35,6", "temp_max_c": "36,1", "temp_min_c": "34,6", "umid_pct": "42,0", "umid_max_pct": "49,0", "umid_min_pct": "42,0", "pto_orvalho_c": "20,8", "pto_orvalho_max_c": "23,0", "pto_orvalho_min_c": "20,2", "press_hpa": "996,9", "press_max_hpa": "998,0", "press_min_hpa": "996,9", "vento_ms": "3,1", "dir_vento_ms": "319,0", "raj_vento_ms": "5,9", "radiacao_kj_m2": "3544,00", "chuva_mm": "0,0", "cod_estacao": "S721", "VL_LATITUDE": -20.08583333, "VL_LONGITUDE": -57.30611111 }, "geometry": { "type": "Point", "coordinates": [ -57.30611111, -20.08583333 ] } },
{ "type": "Feature", "properties": { "data": "11/02/2026", "hora_utc": 1800, "temp_c": "33,7", "temp_max_c": "33,8", "temp_min_c": "32,5", "umid_pct": "52,0", "umid_max_pct": "57,0", "umid_min_pct": "48,0", "pto_orvalho_c": "22,4", "pto_orvalho_max_c": "23,5", "pto_orvalho_min_c": "21,0", "press_hpa": "992,6", "press_max_hpa": "993,7", "press_min_hpa": "992,6", "vento_ms": "2,9", "dir_vento_ms": "276,0", "raj_vento_ms": "6,0", "radiacao_kj_m2": "3407,40", "chuva_mm": "0,0", "cod_estacao": "S725", "VL_LATITUDE": -17.790603, "VL_LONGITUDE": -55.774991 }, "geometry": { "type": "Point", "coordinates": [ -55.774991, -17.790603 ] } },
{ "type": "Feature", "properties": { "data": "11/02/2026", "hora_utc": 1800, "temp_c": "34,7", "temp_max_c": "35,2", "temp_min_c": "33,4", "umid_pct": "45,0", "umid_max_pct": "54,0", "umid_min_pct": "43,0", "pto_orvalho_c": "21,0", "pto_orvalho_max_c": "23,2", "pto_orvalho_min_c": "20,3", "press_hpa": "997,4", "press_max_hpa": "998,4", "press_min_hpa": "997,4", "vento_ms": "2,1", "dir_vento_ms": "32,0", "raj_vento_ms": "5,8", "radiacao_kj_m2": "2844,70", "chuva_mm": "0,0", "cod_estacao": "S720", "VL_LATITUDE": -19.49444444, "VL_LONGITUDE": -56.95777777 }, "geometry": { "type": "Point", "coordinates": [ -56.95777777, -19.49444444 ] } },
{ "type": "Feature", "properties": { "data": "11/02/2026", "hora_utc": 1800, "temp_c": "21,8", "temp_max_c": "26,0", "temp_min_c": "21,8", "umid_pct": "97,0", "umid_max_pct": "97,0", "umid_min_pct": "77,0", "pto_orvalho_c": "21,3", "pto_orvalho_max_c": "22,1", "pto_orvalho_min_c": "20,9", "press_hpa": "929,9", "press_max_hpa": "929,9", "press_min_hpa": "929,5", "vento_ms": "6,7", "dir_vento_ms": "27,0", "raj_vento_ms": "9,0", "radiacao_kj_m2": "990,20", "chuva_mm": "0,0", "cod_estacao": "A760", "VL_LATITUDE": -18.49277777, "VL_LONGITUDE": -53.17138888 }, "geometry": { "type": "Point", "coordinates": [ -53.17138888, -18.49277777 ] } },
{ "type": "Feature", "properties": { "data": "11/02/2026", "hora_utc": 1800, "temp_c": "32,5", "temp_max_c": "32,9", "temp_min_c": "31,2", "umid_pct": "48,0", "umid_max_pct": "59,0", "umid_min_pct": "47,0", "pto_orvalho_c": "20,2", "pto_orvalho_max_c": "22,9", "pto_orvalho_min_c": "19,9", "press_hpa": "980,1", "press_max_hpa": "981,2", "press_min_hpa": "980,1", "vento_ms": "2,5", "dir_vento_ms": "301,0", "raj_vento_ms": "5,7", "radiacao_kj_m2": "3372,20", "chuva_mm": "0,0", "cod_estacao": "A720", "VL_LATITUDE": -18.51222222, "VL_LONGITUDE": -54.7361111 }, "geometry": { "type": "Point", "coordinates": [ -54.7361111, -18.51222222 ] } },
{ "type": "Feature", "properties": { "data": "11/02/2026", "hora_utc": 1800, "temp_c": "32,9", "temp_max_c": "34,7", "temp_min_c": "32,3", "umid_pct": "39,0", "umid_max_pct": "42,0", "umid_min_pct": "33,0", "pto_orvalho_c": "17,2", "pto_orvalho_max_c": "18,3", "pto_orvalho_min_c": "15,3", "press_hpa": "956,9", "press_max_hpa": "957,7", "press_min_hpa": "956,9", "vento_ms": "1,7", "dir_vento_ms": "244,0", "raj_vento_ms": "6,7", "radiacao_kj_m2": "2553,20", "chuva_mm": "0,0", "cod_estacao": "A721", "VL_LATITUDE": -22.19388888, "VL_LONGITUDE": -54.91138888 }, "geometry": { "type": "Point", "coordinates": [ -54.91138888, -22.19388888 ] } },
{ "type": "Feature", "properties": { "data": "11/02/2026", "hora_utc": 1800, "temp_c": "35,0", "temp_max_c": "36,0", "temp_min_c": "33,8", "umid_pct": "39,0", "umid_max_pct": "44,0", "umid_min_pct": "38,0", "pto_orvalho_c": "18,9", "pto_orvalho_max_c": "20,4", "pto_orvalho_min_c": "18,7", "press_hpa": "970,9", "press_max_hpa": "971,8", "press_min_hpa": "970,9", "vento_ms": "1,4", "dir_vento_ms": "96,0", "raj_vento_ms": "5,8", "radiacao_kj_m2": "3485,90", "chuva_mm": "0,0", "cod_estacao": "S708", "VL_LATITUDE": -22.30861111, "VL_LONGITUDE": -54.32583332 }, "geometry": { "type": "Point", "coordinates": [ -54.32583332, -22.30861111 ] } },
{ "type": "Feature", "properties": { "data": "11/02/2026", "hora_utc": 1800, "temp_c": "30,8", "temp_max_c": "30,9", "temp_min_c": "30,2", "umid_pct": "77,0", "umid_max_pct": "79,0", "umid_min_pct": "77,0", "pto_orvalho_c": "26,3", "pto_orvalho_max_c": "26,5", "pto_orvalho_min_c": "25,8", "press_hpa": "957,0", "press_max_hpa": "957,8", "press_min_hpa": "957,0", "vento_ms": "2,5", "dir_vento_ms": "291,0", "raj_vento_ms": "5,5", "radiacao_kj_m2": "3700,10", "chuva_mm": "0,0", "cod_estacao": "S732", "VL_LATITUDE": -18.74532, "VL_LONGITUDE": -53.936083 }, "geometry": { "type": "Point", "coordinates": [ -53.936083, -18.74532 ] } },
{ "type": "Feature", "properties": { "data": "11/02/2026", "hora_utc": 1800, "temp_c": "34,4", "temp_max_c": "36,0", "temp_min_c": "33,8", "umid_pct": "41,0", "umid_max_pct": "43,0", "umid_min_pct": "37,0", "pto_orvalho_c": "19,3", "pto_orvalho_max_c": "19,6", "pto_orvalho_min_c": "18,2", "press_hpa": "972,0", "press_max_hpa": "972,6", "press_min_hpa": "972,0", "vento_ms": "1,4", "dir_vento_ms": "258,0", "raj_vento_ms": "5,9", "radiacao_kj_m2": "1739,20", "chuva_mm": "0,0", "cod_estacao": "S709", "VL_LATITUDE": -23.64444444, "VL_LONGITUDE": -54.57027777 }, "geometry": { "type": "Point", "coordinates": [ -54.57027777, -23.64444444 ] } },
{ "type": "Feature", "properties": { "data": "11/02/2026", "hora_utc": 1800, "temp_c": "27,1", "temp_max_c": "30,9", "temp_min_c": "26,5", "umid_pct": "79,0", "umid_max_pct": "80,0", "umid_min_pct": "55,0", "pto_orvalho_c": "23,2", "pto_orvalho_max_c": "23,2", "pto_orvalho_min_c": "20,7", "press_hpa": "966,8", "press_max_hpa": "967,2", "press_min_hpa": "966,8", "vento_ms": "6,4", "dir_vento_ms": "93,0", "raj_vento_ms": "9,4", "radiacao_kj_m2": "1464,20", "chuva_mm": "0,0", "cod_estacao": "S734", "VL_LATITUDE": -19.98796, "VL_LONGITUDE": -52.139617 }, "geometry": { "type": "Point", "coordinates": [ -52.139617, -19.98796 ] } },
{ "type": "Feature", "properties": { "data": "11/02/2026", "hora_utc": 1800, "temp_c": "34,9", "temp_max_c": "36,1", "temp_min_c": "33,7", "umid_pct": "39,0", "umid_max_pct": "44,0", "umid_min_pct": "36,0", "pto_orvalho_c": "18,7", "pto_orvalho_max_c": "20,3", "pto_orvalho_min_c": "17,6", "press_hpa": "967,4", "press_max_hpa": "968,3", "press_min_hpa": "967,4", "vento_ms": "2,0", "dir_vento_ms": "19,0", "raj_vento_ms": "5,4", "radiacao_kj_m2": "3042,40", "chuva_mm": "0,0", "cod_estacao": "S710", "VL_LATITUDE": -22.09277777, "VL_LONGITUDE": -54.79888888 }, "geometry": { "type": "Point", "coordinates": [ -54.79888888, -22.09277777 ] } },
{ "type": "Feature", "properties": { "data": "11/02/2026", "hora_utc": 1800, "temp_c": "33,9", "temp_max_c": "35,7", "temp_min_c": "33,1", "umid_pct": "38,0", "umid_max_pct": "45,0", "umid_min_pct": "36,0", "pto_orvalho_c": "17,6", "pto_orvalho_max_c": "19,8", "pto_orvalho_min_c": "17,1", "press_hpa": "970,7", "press_max_hpa": "971,5", "press_min_hpa": "970,7", "vento_ms": "0,1", "dir_vento_ms": "189,0", "raj_vento_ms": "4,7", "radiacao_kj_m2": "2928,40", "chuva_mm": "0,0", "cod_estacao": "A752", "VL_LATITUDE": -23.44944444, "VL_LONGITUDE": -54.18194443 }, "geometry": { "type": "Point", "coordinates": [ -54.18194443, -23.44944444 ] } },
{ "type": "Feature", "properties": { "data": "11/02/2026", "hora_utc": 1800, "temp_c": "32,7", "temp_max_c": "33,7", "temp_min_c": "32,2", "umid_pct": "42,0", "umid_max_pct": "47,0", "umid_min_pct": "40,0", "pto_orvalho_c": "18,0", "pto_orvalho_max_c": "19,6", "pto_orvalho_min_c": "18,0", "press_hpa": "966,2", "press_max_hpa": "967,1", "press_min_hpa": "966,2", "vento_ms": "3,0", "dir_vento_ms": "155,0", "raj_vento_ms": "6,3", "radiacao_kj_m2": "2600,80", "chuva_mm": "0,0", "cod_estacao": "A709", "VL_LATITUDE": -22.30055555, "VL_LONGITUDE": -53.82277777 }, "geometry": { "type": "Point", "coordinates": [ -53.82277777, -22.30055555 ] } },
{ "type": "Feature", "properties": { "data": "11/02/2026", "hora_utc": 1800, "temp_c": "34,1", "temp_max_c": "34,5", "temp_min_c": "32,7", "umid_pct": "34,0", "umid_max_pct": "41,0", "umid_min_pct": "32,0", "pto_orvalho_c": "15,8", "pto_orvalho_max_c": "18,5", "pto_orvalho_min_c": "14,8", "press_hpa": "979,9", "press_max_hpa": "980,9", "press_min_hpa": "979,9", "vento_ms": "1,6", "dir_vento_ms": "358,0", "raj_vento_ms": "5,7", "radiacao_kj_m2": "640,20", "chuva_mm": "0,0", "cod_estacao": "A758", "VL_LATITUDE": -21.4786111, "VL_LONGITUDE": -56.13777777 }, "geometry": { "type": "Point", "coordinates": [ -56.13777777, -21.4786111 ] } },
{ "type": "Feature", "properties": { "data": "11/02/2026", "hora_utc": 1800, "temp_c": null, "temp_max_c": null, "temp_min_c": null, "umid_pct": null, "umid_max_pct": null, "umid_min_pct": null, "pto_orvalho_c": null, "pto_orvalho_max_c": null, "pto_orvalho_min_c": null, "press_hpa": null, "press_max_hpa": null, "press_min_hpa": null, "vento_ms": null, "dir_vento_ms": null, "raj_vento_ms": null, "radiacao_kj_m2": null, "chuva_mm": null, "cod_estacao": "A749", "VL_LATITUDE": -22.85722222, "VL_LONGITUDE": -54.60555555 }, "geometry": { "type": "Point", "coordinates": [ -54.60555555, -22.85722222 ] } },
{ "type": "Feature", "properties": { "data": "11/02/2026", "hora_utc": 1800, "temp_c": "34,3", "temp_max_c": "35,3", "temp_min_c": "33,5", "umid_pct": "38,0", "umid_max_pct": "38,0", "umid_min_pct": "33,0", "pto_orvalho_c": "18,0", "pto_orvalho_max_c": "18,3", "pto_orvalho_min_c": "15,8", "press_hpa": "952,4", "press_max_hpa": "953,3", "press_min_hpa": "952,4", "vento_ms": "2,9", "dir_vento_ms": "96,0", "raj_vento_ms": "7,1", "radiacao_kj_m2": "3234,50", "chuva_mm": "0,0", "cod_estacao": "S711", "VL_LATITUDE": -22.57527777, "VL_LONGITUDE": -55.16027777 }, "geometry": { "type": "Point", "coordinates": [ -55.16027777, -22.57527777 ] } },
{ "type": "Feature", "properties": { "data": "11/02/2026", "hora_utc": 1800, "temp_c": "36,1", "temp_max_c": "37,0", "temp_min_c": "34,8", "umid_pct": "36,0", "umid_max_pct": "36,0", "umid_min_pct": "29,0", "pto_orvalho_c": "18,7", "pto_orvalho_max_c": "18,7", "pto_orvalho_min_c": "14,8", "press_hpa": "963,0", "press_max_hpa": "963,3", "press_min_hpa": "962,9", "vento_ms": null, "dir_vento_ms": null, "raj_vento_ms": null, "radiacao_kj_m2": "3602,00", "chuva_mm": "0,0", "cod_estacao": "A731", "VL_LATITUDE": -21.60916666, "VL_LONGITUDE": -55.17749999 }, "geometry": { "type": "Point", "coordinates": [ -55.17749999, -21.60916666 ] } },
{ "type": "Feature", "properties": { "data": "11/02/2026", "hora_utc": 1800, "temp_c": "34,4", "temp_max_c": "34,4", "temp_min_c": "32,4", "umid_pct": "47,0", "umid_max_pct": "55,0", "umid_min_pct": "45,0", "pto_orvalho_c": "21,5", "pto_orvalho_max_c": "22,8", "pto_orvalho_min_c": "20,4", "press_hpa": "993,5", "press_max_hpa": "994,5", "press_min_hpa": "993,5", "vento_ms": null, "dir_vento_ms": "314,0", "raj_vento_ms": null, "radiacao_kj_m2": "3483,70", "chuva_mm": "0,0", "cod_estacao": "A722", "VL_LATITUDE": -20.39555555, "VL_LONGITUDE": -56.43166666 }, "geometry": { "type": "Point", "coordinates": [ -56.43166666, -20.39555555 ] } },
{ "type": "Feature", "properties": { "data": "11/02/2026", "hora_utc": 1800, "temp_c": "33,2", "temp_max_c": "33,4", "temp_min_c": "32,3", "umid_pct": "50,0", "umid_max_pct": "54,0", "umid_min_pct": "45,0", "pto_orvalho_c": "21,3", "pto_orvalho_max_c": "22,3", "pto_orvalho_min_c": "19,4", "press_hpa": "973,3", "press_max_hpa": "974,1", "press_min_hpa": "973,3", "vento_ms": "2,8", "dir_vento_ms": "112,0", "raj_vento_ms": "7,8", "radiacao_kj_m2": "3400,10", "chuva_mm": "0,0", "cod_estacao": "S735", "VL_LATITUDE": -22.899909, "VL_LONGITUDE": -53.869219 }, "geometry": { "type": "Point", "coordinates": [ -53.869219, -22.899909 ] } },
{ "type": "Feature", "properties": { "data": "11/02/2026", "hora_utc": 1800, "temp_c": "34,3", "temp_max_c": "34,8", "temp_min_c": "33,2", "umid_pct": "44,0", "umid_max_pct": "53,0", "umid_min_pct": "43,0", "pto_orvalho_c": "20,4", "pto_orvalho_max_c": "23,0", "pto_orvalho_min_c": "20,1", "press_hpa": "997,0", "press_max_hpa": "998,0", "press_min_hpa": "997,0", "vento_ms": "2,0", "dir_vento_ms": "5,0", "raj_vento_ms": "4,8", "radiacao_kj_m2": "2956,90", "chuva_mm": "0,0", "cod_estacao": "A717", "VL_LATITUDE": -18.9886111, "VL_LONGITUDE": -56.62277777 }, "geometry": { "type": "Point", "coordinates": [ -56.62277777, -18.9886111 ] } },
{ "type": "Feature", "properties": { "data": "11/02/2026", "hora_utc": 1800, "temp_c": "32,9", "temp_max_c": "33,3", "temp_min_c": "31,6", "umid_pct": "59,0", "umid_max_pct": "62,0", "umid_min_pct": "49,0", "pto_orvalho_c": "23,8", "pto_orvalho_max_c": "23,8", "pto_orvalho_min_c": "20,7", "press_hpa": "975,6", "press_max_hpa": "976,7", "press_min_hpa": "975,6", "vento_ms": "1,7", "dir_vento_ms": "24,0", "raj_vento_ms": "5,3", "radiacao_kj_m2": "2557,80", "chuva_mm": "0,0", "cod_estacao": "S724", "VL_LATITUDE": -21.067069, "VL_LONGITUDE": -55.645874 }, "geometry": { "type": "Point", "coordinates": [ -55.645874, -21.067069 ] } },
{ "type": "Feature", "properties": { "data": "11/02/2026", "hora_utc": 1800, "temp_c": "31,9", "temp_max_c": "33,2", "temp_min_c": "31,4", "umid_pct": "55,0", "umid_max_pct": "59,0", "umid_min_pct": "47,0", "pto_orvalho_c": "21,6", "pto_orvalho_max_c": "22,8", "pto_orvalho_min_c": "20,4", "press_hpa": "964,8", "press_max_hpa": "965,6", "press_min_hpa": "964,8", "vento_ms": "1,9", "dir_vento_ms": "172,0", "raj_vento_ms": "4,2", "radiacao_kj_m2": "1533,30", "chuva_mm": "0,0", "cod_estacao": "S712", "VL_LATITUDE": -21.45083333, "VL_LONGITUDE": -54.34194444 }, "geometry": { "type": "Point", "coordinates": [ -54.34194444, -21.45083333 ] } },
{ "type": "Feature", "properties": { "data": "11/02/2026", "hora_utc": 1800, "temp_c": "32,9", "temp_max_c": "34,6", "temp_min_c": "31,0", "umid_pct": "52,0", "umid_max_pct": "59,0", "umid_min_pct": "46,0", "pto_orvalho_c": "21,7", "pto_orvalho_max_c": "22,6", "pto_orvalho_min_c": "20,7", "press_hpa": "967,2", "press_max_hpa": "968,0", "press_min_hpa": "967,2", "vento_ms": "1,3", "dir_vento_ms": "196,0", "raj_vento_ms": "4,4", "radiacao_kj_m2": "2611,50", "chuva_mm": "0,0", "cod_estacao": "S713", "VL_LATITUDE": -22.0786111, "VL_LONGITUDE": -53.46583333 }, "geometry": { "type": "Point", "coordinates": [ -53.46583333, -22.0786111 ] } },
{ "type": "Feature", "properties": { "data": "11/02/2026", "hora_utc": 1800, "temp_c": "31,6", "temp_max_c": "31,7", "temp_min_c": "29,7", "umid_pct": "52,0", "umid_max_pct": "58,0", "umid_min_pct": "49,0", "pto_orvalho_c": "20,5", "pto_orvalho_max_c": "21,2", "pto_orvalho_min_c": "19,4", "press_hpa": "945,0", "press_max_hpa": "945,6", "press_min_hpa": "945,0", "vento_ms": "2,4", "dir_vento_ms": "299,0", "raj_vento_ms": "6,8", "radiacao_kj_m2": "3401,90", "chuva_mm": "0,0", "cod_estacao": "S723", "VL_LATITUDE": -19.233169, "VL_LONGITUDE": -53.329431 }, "geometry": { "type": "Point", "coordinates": [ -53.329431, -19.233169 ] } },
{ "type": "Feature", "properties": { "data": "11/02/2026", "hora_utc": 1800, "temp_c": "23,5", "temp_max_c": "24,3", "temp_min_c": "23,1", "umid_pct": "89,0", "umid_max_pct": "92,0", "umid_min_pct": "87,0", "pto_orvalho_c": "21,7", "pto_orvalho_max_c": "22,2", "pto_orvalho_min_c": "21,4", "press_hpa": "965,5", "press_max_hpa": "965,9", "press_min_hpa": "965,3", "vento_ms": "3,1", "dir_vento_ms": "355,0", "raj_vento_ms": "8,2", "radiacao_kj_m2": "1066,70", "chuva_mm": "1,0", "cod_estacao": "A710", "VL_LATITUDE": -19.69555555, "VL_LONGITUDE": -51.18166666 }, "geometry": { "type": "Point", "coordinates": [ -51.18166666, -19.69555555 ] } },
{ "type": "Feature", "properties": { "data": "11/02/2026", "hora_utc": 1800, "temp_c": "32,8", "temp_max_c": "32,9", "temp_min_c": "31,4", "umid_pct": null, "umid_max_pct": null, "umid_min_pct": null, "pto_orvalho_c": null, "pto_orvalho_max_c": null, "pto_orvalho_min_c": null, "press_hpa": "980,7", "press_max_hpa": "981,8", "press_min_hpa": "980,7", "vento_ms": "2,5", "dir_vento_ms": "313,0", "raj_vento_ms": "4,9", "radiacao_kj_m2": "2972,20", "chuva_mm": "0,0", "cod_estacao": "S714", "VL_LATITUDE": -18.07277777, "VL_LONGITUDE": -54.54888888 }, "geometry": { "type": "Point", "coordinates": [ -54.54888888, -18.07277777 ] } },
{ "type": "Feature", "properties": { "data": "11/02/2026", "hora_utc": 1800, "temp_c": "32,4", "temp_max_c": "33,6", "temp_min_c": "31,8", "umid_pct": "39,0", "umid_max_pct": "39,0", "umid_min_pct": "29,0", "pto_orvalho_c": "16,5", "pto_orvalho_max_c": "16,5", "pto_orvalho_min_c": "12,3", "press_hpa": "935,4", "press_max_hpa": "936,2", "press_min_hpa": "935,4", "vento_ms": "1,7", "dir_vento_ms": "346,0", "raj_vento_ms": "4,8", "radiacao_kj_m2": "3299,10", "chuva_mm": "0,0", "cod_estacao": "A703", "VL_LATITUDE": -22.5525, "VL_LONGITUDE": -55.71638888 }, "geometry": { "type": "Point", "coordinates": [ -55.71638888, -22.5525 ] } },
{ "type": "Feature", "properties": { "data": "11/02/2026", "hora_utc": 1800, "temp_c": "35,4", "temp_max_c": "36,0", "temp_min_c": "34,8", "umid_pct": "40,0", "umid_max_pct": "46,0", "umid_min_pct": "36,0", "pto_orvalho_c": "19,8", "pto_orvalho_max_c": "22,2", "pto_orvalho_min_c": "17,9", "press_hpa": "998,9", "press_max_hpa": "999,6", "press_min_hpa": "998,9", "vento_ms": "0,6", "dir_vento_ms": "10,0", "raj_vento_ms": "5,4", "radiacao_kj_m2": "3424,30", "chuva_mm": null, "cod_estacao": "A723", "VL_LATITUDE": -21.70583333, "VL_LONGITUDE": -57.88666666 }, "geometry": { "type": "Point", "coordinates": [ -57.88666666, -21.70583333 ] } },
{ "type": "Feature", "properties": { "data": "11/02/2026", "hora_utc": 1800, "temp_c": "34,8", "temp_max_c": "35,1", "temp_min_c": "33,5", "umid_pct": "49,0", "umid_max_pct": "54,0", "umid_min_pct": "49,0", "pto_orvalho_c": "22,4", "pto_orvalho_max_c": "23,7", "pto_orvalho_min_c": "22,1", "press_hpa": "990,4", "press_max_hpa": "991,3", "press_min_hpa": "990,4", "vento_ms": "1,9", "dir_vento_ms": "45,0", "raj_vento_ms": "5,5", "radiacao_kj_m2": "3169,10", "chuva_mm": "0,0", "cod_estacao": "S719", "VL_LATITUDE": -20.97305554, "VL_LONGITUDE": -57.40111111 }, "geometry": { "type": "Point", "coordinates": [ -57.40111111, -20.97305554 ] } },
{ "type": "Feature", "properties": { "data": "11/02/2026", "hora_utc": 1800, "temp_c": "32,6", "temp_max_c": "33,3", "temp_min_c": "31,3", "umid_pct": "53,0", "umid_max_pct": "56,0", "umid_min_pct": "51,0", "pto_orvalho_c": "21,8", "pto_orvalho_max_c": "22,7", "pto_orvalho_min_c": "20,2", "press_hpa": "958,0", "press_max_hpa": "958,7", "press_min_hpa": "958,0", "vento_ms": "2,5", "dir_vento_ms": "233,0", "raj_vento_ms": "5,3", "radiacao_kj_m2": "2732,10", "chuva_mm": "0,0", "cod_estacao": "S728", "VL_LATITUDE": -21.189845, "VL_LONGITUDE": -53.555382 }, "geometry": { "type": "Point", "coordinates": [ -53.555382, -21.189845 ] } },
{ "type": "Feature", "properties": { "data": "11/02/2026", "hora_utc": 1800, "temp_c": "33,3", "temp_max_c": "34,0", "temp_min_c": "32,9", "umid_pct": "45,0", "umid_max_pct": "48,0", "umid_min_pct": "42,0", "pto_orvalho_c": "19,6", "pto_orvalho_max_c": "20,8", "pto_orvalho_min_c": "18,9", "press_hpa": "959,2", "press_max_hpa": "959,8", "press_min_hpa": "959,2", "vento_ms": "1,6", "dir_vento_ms": "267,0", "raj_vento_ms": "5,3", "radiacao_kj_m2": "3207,00", "chuva_mm": "0,0", "cod_estacao": "S715", "VL_LATITUDE": -20.46666666, "VL_LONGITUDE": -53.76305555 }, "geometry": { "type": "Point", "coordinates": [ -53.76305555, -20.46666666 ] } },
{ "type": "Feature", "properties": { "data": "11/02/2026", "hora_utc": 1800, "temp_c": "33,9", "temp_max_c": "33,9", "temp_min_c": "32,2", "umid_pct": "42,0", "umid_max_pct": "50,0", "umid_min_pct": "40,0", "pto_orvalho_c": "19,2", "pto_orvalho_max_c": "21,2", "pto_orvalho_min_c": "18,3", "press_hpa": "971,9", "press_max_hpa": "972,9", "press_min_hpa": "971,9", "vento_ms": "0,0", "dir_vento_ms": "309,0", "raj_vento_ms": "4,5", "radiacao_kj_m2": "2416,90", "chuva_mm": "0,0", "cod_estacao": "A743", "VL_LATITUDE": -21.77499999, "VL_LONGITUDE": -54.52805554 }, "geometry": { "type": "Point", "coordinates": [ -54.52805554, -21.77499999 ] } },
{ "type": "Feature", "properties": { "data": "11/02/2026", "hora_utc": 1800, "temp_c": "33,1", "temp_max_c": "33,1", "temp_min_c": "31,9", "umid_pct": "49,0", "umid_max_pct": "53,0", "umid_min_pct": "47,0", "pto_orvalho_c": "20,9", "pto_orvalho_max_c": "22,0", "pto_orvalho_min_c": "19,6", "press_hpa": "966,2", "press_max_hpa": "966,9", "press_min_hpa": "966,2", "vento_ms": "1,7", "dir_vento_ms": "246,0", "raj_vento_ms": "4,4", "radiacao_kj_m2": "3621,40", "chuva_mm": "0,0", "cod_estacao": "S716", "VL_LATITUDE": -21.30583333, "VL_LONGITUDE": -52.82027777 }, "geometry": { "type": "Point", "coordinates": [ -52.82027777, -21.30583333 ] } },
{ "type": "Feature", "properties": { "data": "11/02/2026", "hora_utc": 1800, "temp_c": "29,6", "temp_max_c": "30,2", "temp_min_c": "29,1", "umid_pct": "61,0", "umid_max_pct": "64,0", "umid_min_pct": "55,0", "pto_orvalho_c": "21,2", "pto_orvalho_max_c": "21,9", "pto_orvalho_min_c": "19,7", "press_hpa": "937,3", "press_max_hpa": "938,0", "press_min_hpa": "937,2", "vento_ms": "3,9", "dir_vento_ms": "273,0", "raj_vento_ms": "7,7", "radiacao_kj_m2": "4149,80", "chuva_mm": "0,0", "cod_estacao": "A732", "VL_LATITUDE": -19.42027777, "VL_LONGITUDE": -54.55305555 }, "geometry": { "type": "Point", "coordinates": [ -54.55305555, -19.42027777 ] } },
{ "type": "Feature", "properties": { "data": "11/02/2026", "hora_utc": 1800, "temp_c": "34,0", "temp_max_c": "35,0", "temp_min_c": "32,1", "umid_pct": "44,0", "umid_max_pct": "49,0", "umid_min_pct": "38,0", "pto_orvalho_c": "20,0", "pto_orvalho_max_c": "20,4", "pto_orvalho_min_c": "18,4", "press_hpa": "964,0", "press_max_hpa": "964,8", "press_min_hpa": "964,0", "vento_ms": "0,0", "dir_vento_ms": "254,0", "raj_vento_ms": "3,1", "radiacao_kj_m2": "2169,50", "chuva_mm": "0,0", "cod_estacao": "A751", "VL_LATITUDE": -23.96694443, "VL_LONGITUDE": -55.02416666 }, "geometry": { "type": "Point", "coordinates": [ -55.02416666, -23.96694443 ] } },
{ "type": "Feature", "properties": { "data": "11/02/2026", "hora_utc": 1800, "temp_c": "32,5", "temp_max_c": "32,7", "temp_min_c": "31,4", "umid_pct": "47,0", "umid_max_pct": "54,0", "umid_min_pct": "42,0", "pto_orvalho_c": "19,9", "pto_orvalho_max_c": "21,6", "pto_orvalho_min_c": "18,0", "press_hpa": "956,4", "press_max_hpa": "957,4", "press_min_hpa": "956,4", "vento_ms": "1,8", "dir_vento_ms": "346,0", "raj_vento_ms": "5,8", "radiacao_kj_m2": "3459,70", "chuva_mm": "0,0", "cod_estacao": "A754", "VL_LATITUDE": -20.98166666, "VL_LONGITUDE": -54.97194443 }, "geometry": { "type": "Point", "coordinates": [ -54.97194443, -20.98166666 ] } },
{ "type": "Feature", "properties": { "data": "11/02/2026", "hora_utc": 1800, "temp_c": "29,3", "temp_max_c": "30,7", "temp_min_c": "29,0", "umid_pct": "60,0", "umid_max_pct": "63,0", "umid_min_pct": "55,0", "pto_orvalho_c": "20,6", "pto_orvalho_max_c": "22,2", "pto_orvalho_min_c": "19,8", "press_hpa": "954,0", "press_max_hpa": "954,9", "press_min_hpa": "954,0", "vento_ms": "3,2", "dir_vento_ms": "301,0", "raj_vento_ms": "6,5", "radiacao_kj_m2": "2887,40", "chuva_mm": "0,0", "cod_estacao": "A761", "VL_LATITUDE": -17.63527777, "VL_LONGITUDE": -54.76055555 }, "geometry": { "type": "Point", "coordinates": [ -54.76055555, -17.63527777 ] } },
{ "type": "Feature", "properties": { "data": "11/02/2026", "hora_utc": 1800, "temp_c": "28,3", "temp_max_c": "31,1", "temp_min_c": "28,2", "umid_pct": "69,0", "umid_max_pct": "69,0", "umid_min_pct": "51,0", "pto_orvalho_c": "22,0", "pto_orvalho_max_c": "22,0", "pto_orvalho_min_c": "19,3", "press_hpa": "973,5", "press_max_hpa": "973,6", "press_min_hpa": "973,4", "vento_ms": "3,3", "dir_vento_ms": "50,0", "raj_vento_ms": "7,3", "radiacao_kj_m2": "1000,50", "chuva_mm": "0,0", "cod_estacao": "A704", "VL_LATITUDE": -20.79499999, "VL_LONGITUDE": -51.71333333 }, "geometry": { "type": "Point", "coordinates": [ -51.71333333, -20.79499999 ] } }
]
}
